[
    {
        "Altitude(m)": 617719.7592216934,
        "Argument of Periapsis(deg)": 0.0,
        "Eccentricity": 0.0,
        "Inclination(deg)": 60.0,
        "Latitude(deg)": -41.1026083734553,
        "Longitude(deg)": -169.90545935496237,
        "Mean Anomaly(deg)": 229.09089999999998,
        "RAAN(deg)": 80.0,
        "Satellite Name": "Test1 366",
        "Satellite Number": 366,
        "Semi-Major Axis(m)": 6980739.136638005,
        "Time(s)": 0
    },
    {
        "Altitude(m)": 617911.2955025965,
        "Argument of Periapsis(deg)": 0.00010418945913296404,
        "Eccentricity": 0.0,
        "Inclination(deg)": 60.0,
        "Latitude(deg)": -41.56580143433218,
        "Longitude(deg)": -169.401054796732,
        "Mean Anomaly(deg)": 229.71100614546188,
        "RAAN(deg)": 79.99957995086025,
        "Satellite Name": "Test1 366",
        "Satellite Number": 366,
        "Semi-Major Axis(m)": 6980739.136638005,
        "Time(s)": 10
    }
]